EUTELSAT 7A             
1 28187U 04008A   25282.53540605  .00000105  00000+0  00000+0 0  9999
2 28187   5.1899  74.9832 0001216 154.4836 202.5190  1.00268479 78836
EUTELSAT 174A           
1 28924U 05052A   25282.79141859  .00000010  00000+0  00000+0 0  9999
2 28924   3.5810  79.6136 0006422 123.3233 274.6438  1.00271854 49822
EUTELSAT HOTBIRD 13B    
1 29270U 06032A   25282.78362057  .00000156  00000+0  00000+0 0  9998
2 29270   1.0099  84.9346 0003896 111.7874 137.1309  1.00272782 44797
EUTELSAT HOTBIRD 13C    
1 33459U 08065A   25282.82128215 -.00000100  00000+0  00000+0 0  9991
2 33459   2.3022  82.1339 0005721 140.4320  79.3031  1.00271358 44839
EUTELSAT 36B            
1 36101U 09065A   25282.78708725  .00000112  00000+0  00000+0 0  9996
2 36101   0.0617   6.2623 0006063 196.1985 150.0617  1.00270465 58198
EUTELSAT KA-SAT 9A      
1 37258U 10069A   25282.77885388  .00000061  00000+0  00000+0 0  9999
2 37258   0.0588 322.0667 0002609 206.9698 139.0170  1.00268881 41494
EUTELSAT 7 WEST A       
1 37816U 11051A   25282.77564720 -.00000061  00000+0  00000+0 0  9996
2 37816   0.0698  24.2741 0006582 175.6460  90.6626  1.00271557 51373
EUTELSAT 16A            
1 37836U 11057A   25282.56617287  .00000104  00000+0  00000+0 0  9995
2 37836   0.0651 354.6251 0005390 207.0963  36.5733  1.00274442  4815
